$$SOE
2460721.500000000, A.D. 2025-Feb-15 00:00:00.0000, -2.388198138137821E+08, 2.402495521385663E+08, 3.531956521559501E+07,
2460728.500000000, A.D. 2025-Feb-22 00:00:00.0000, -2.483663063349985E+08, 2.333265962276947E+08, 3.587203737461561E+07,
2460735.500000000, A.D. 2025-Mar-01 00:00:00.0000, -2.576131064570809E+08, 2.261221031944409E+08, 3.638122237381414E+07,
2460742.500000000, A.D. 2025-Mar-08 00:00:00.0000, -2.665545521279137E+08, 2.186495892537520E+08, 3.684728200830625E+07,
2460749.500000000, A.D. 2025-Mar-15 00:00:00.0000, -2.751855336425272E+08, 2.109224157166290E+08, 3.727042283846557E+07,
2460756.500000000, A.D. 2025-Mar-22 00:00:00.0000, -2.835014662664399E+08, 2.029537765374931E+08, 3.765089292921513E+07,
2460763.500000000, A.D. 2025-Mar-29 00:00:00.0000, -2.914982625448650E+08, 1.947566858363662E+08, 3.798897849833944E+07,
2460770.500000000, A.D. 2025-Apr-05 00:00:00.0000, -2.991723040295435E+08, 1.863439683235819E+08, 3.828500069510039E+07,
2460777.500000000, A.D. 2025-Apr-12 00:00:00.0000, -3.065204143939420E+08, 1.777282525365456E+08, 3.853931268786328E+07,
2460784.500000000, A.D. 2025-Apr-19 00:00:00.0000, -3.135398341482098E+08, 1.689219658273962E+08, 3.875229699818085E+07,
2460791.500000000, A.D. 2025-Apr-26 00:00:00.0000, -3.202281966896700E+08, 1.599373307266742E+08, 3.892436303103822E+07,
2460798.500000000, A.D. 2025-May-03 00:00:00.0000, -3.265835055731872E+08, 1.507863625411504E+08, 3.905594478337795E+07,
2460805.500000000, A.D. 2025-May-10 00:00:00.0000, -3.326041129632859E+08, 1.414808680465852E+08, 3.914749872005516E+07,
2460812.500000000, A.D. 2025-May-17 00:00:00.0000, -3.382886992147794E+08, 1.320324450993971E+08, 3.919950180168533E+07,
2460819.500000000, A.D. 2025-May-24 00:00:00.0000, -3.436362533853306E+08, 1.224524829897855E+08, 3.921244963528687E+07,
2460826.500000000, A.D. 2025-May-31 00:00:00.0000, -3.486460542342311E+08, 1.127521637352350E+08, 3.918685472623756E+07,
2460833.500000000, A.D. 2025-Jun-07 00:00:00.0000, -3.533176520765712E+08, 1.029424654167688E+08, 3.912324495835222E+07,
2460840.500000000, A.D. 2025-Jun-14 00:00:00.0000, -3.576508538252062E+08, 9.303416679808035E+07, 3.902216245647739E+07,
2460847.500000000, A.D. 2025-Jun-21 00:00:00.0000, -3.616457099715231E+08, 8.303784987498333E+07, 3.888416244537278E+07,
2460854.500000000, A.D. 2025-Jun-28 00:00:00.0000, -3.653025003367286E+08, 7.296390204786584E+07, 3.870981195475124E+07,
2460861.500000000, A.D. 2025-Jul-05 00:00:00.0000, -3.686217200668435E+08, 6.282252000371660E+07, 3.849968867804871E+07,
2460868.500000000, A.D. 2025-Jul-12 00:00:00.0000, -3.716040670258453E+08, 5.262371443872478E+07, 3.825438002146275E+07,
2460875.500000000, A.D. 2025-Jul-19 00:00:00.0000, -3.742504303627291E+08, 4.237731499303430E+07, 3.797448227283537E+07,
2460882.500000000, A.D. 2025-Jul-26 00:00:00.0000, -3.765618800053610E+08, 3.209297529411259E+07, 3.766059986063106E+07,
2460889.500000000, A.D. 2025-Aug-02 00:00:00.0000, -3.785396569782016E+08, 2.178017808751862E+07, 3.731334469308841E+07,
2460896.500000000, A.D. 2025-Aug-09 00:00:00.0000, -3.801851644842682E+08, 1.144824040190444E+07, 3.693333556887065E+07,
2460903.500000000, A.D. 2025-Aug-16 00:00:00.0000, -3.814999596396957E+08, 1.106318650880903E+06, 3.652119764205995E+07,
2460910.500000000, A.D. 2025-Aug-23 00:00:00.0000, -3.824857455348718E+08, -9.236586341868643E+06, 3.607756191144565E+07,
2460917.500000000, A.D. 2025-Aug-30 00:00:00.0000, -3.831443632607626E+08, -1.957162370681722E+07, 3.560306475802547E+07,
2460924.500000000, A.D. 2025-Sep-06 00:00:00.0000, -3.834777852873306E+08, -2.989008530611125E+07, 3.509834773851327E+07,
2460931.500000000, A.D. 2025-Sep-13 00:00:00.0000, -3.834881118373258E+08, -4.018339942963275E+07, 3.456405758160853E+07,
2460938.500000000, A.D. 2025-Sep-20 00:00:00.0000, -3.831775669585554E+08, -5.044312707223448E+07, 3.400084594950345E+07,
2460945.500000000, A.D. 2025-Sep-27 00:00:00.0000, -3.825484932099335E+08, -6.066095769428518E+07, 3.340936911893333E+07,
2460952.500000000, A.D. 2025-Oct-04 00:00:00.0000, -3.816033469500565E+08, -7.082870394047813E+07, 3.279028780757229E+07,
2460959.500000000, A.D. 2025-Oct-11 00:00:00.0000, -3.803446945791003E+08, -8.093829627512631E+07, 3.214426710005032E+07,
2460966.500000000, A.D. 2025-Oct-18 00:00:00.0000, -3.787752094324279E+08, -9.098177782086959E+07, 3.147197642282720E+07,
2460973.500000000, A.D. 2025-Oct-25 00:00:00.0000, -3.768976691695516E+08, -1.009512993989826E+08, 3.077408955393464E+07,
2460980.500000000, A.D. 2025-Nov-01 00:00:00.0000, -3.747149536022952E+08, -1.108391147629137E+08, 3.005128466311388E+07,
2460987.500000000, A.D. 2025-Nov-08 00:00:00.0000, -3.722300429110258E+08, -1.206375760617836E+08, 2.930424437441801E+07,
2460994.500000000, A.D. 2025-Nov-15 00:00:00.0000, -3.694460160838398E+08, -1.303391295962396E+08, 2.853365583062189E+07,
2461001.500000000, A.D. 2025-Nov-22 00:00:00.0000, -3.663660491575667E+08, -1.399363116505057E+08, 2.774021073809808E+07,
2461008.500000000, A.D. 2025-Nov-29 00:00:00.0000, -3.629934133955140E+08, -1.494217432717705E+08, 2.692460549668996E+07,
2461015.500000000, A.D. 2025-Dec-06 00:00:00.0000, -3.593314756646361E+08, -1.587881241423322E+08, 2.608754161048833E+07,
2461022.500000000, A.D. 2025-Dec-13 00:00:00.0000, -3.553837005711470E+08, -1.680282289259771E+08, 2.522972606316155E+07,
2461029.500000000, A.D. 2025-Dec-20 00:00:00.0000, -3.511536508597217E+08, -1.771349050733259E+08, 2.435187142058190E+07,
2461036.500000000, A.D. 2025-Dec-27 00:00:00.0000, -3.466449871464034E+08, -1.861010694974257E+08, 2.345469597045639E+07,
2461043.500000000, A.D. 2026-Jan-03 00:00:00.0000, -3.418614684366521E+08, -1.949197047367485E+08, 2.253892398145423E+07,
2461050.500000000, A.D. 2026-Jan-10 00:00:00.0000, -3.368069533107187E+08, -2.035838552886409E+08, 2.160528601508339E+07,
2461057.500000000, A.D. 2026-Jan-17 00:00:00.0000, -3.314854015381547E+08, -2.120866242106257E+08, 2.065451926057758E+07,
2461064.500000000, A.D. 2026-Jan-24 00:00:00.0000, -3.259008760395878E+08, -2.204211699726208E+08, 1.968736788686585E+07,
2461071.500000000, A.D. 2026-Jan-31 00:00:00.0000, -3.200575451687705E+08, -2.285807035731242E+08, 1.870458340831789E+07,
2461078.500000000, A.D. 2026-Feb-07 00:00:00.0000, -3.139596852502493E+08, -2.365584859829833E+08, 1.770692505339855E+07,
2461085.500000000, A.D. 2026-Feb-14 00:00:00.0000, -3.076116831172404E+08, -2.443478259391921E+08, 1.669516011125340E+07,
2461092.500000000, A.D. 2026-Feb-21 00:00:00.0000, -3.010180382605469E+08, -2.519420775195140E+08, 1.567006426735921E+07,
2461099.500000000, A.D. 2026-Feb-28 00:00:00.0000, -2.941833656718029E+08, -2.593346363528469E+08, 1.463242212148398E+07,
2461106.500000000, A.D. 2026-Mar-07 00:00:00.0000, -2.871124014380040E+08, -2.665189364255340E+08, 1.358302791676866E+07,
2461113.500000000, A.D. 2026-Mar-14 00:00:00.0000, -2.798100083122196E+08, -2.734884498298004E+08, 1.252268603416061E+07,
2461120.500000000, A.D. 2026-Mar-21 00:00:00.0000, -2.722811794804775E+08, -2.802366865705358E+08, 1.145221132522425E+07,
2461127.500000000, A.D. 2026-Mar-28 00:00:00.0000, -2.645310425363073E+08, -2.867571934148502E+08, 1.037242955141011E+07,
2461134.500000000, A.D. 2026-Apr-04 00:00:00.0000, -2.565648642672221E+08, -2.930435527637527E+08, 9.284177905745327E+06,
2461141.500000000, A.D. 2026-Apr-11 00:00:00.0000, -2.483880559792684E+08, -2.990893819222440E+08, 8.188305561704874E+06,
2461148.500000000, A.D. 2026-Apr-18 00:00:00.0000, -2.400061792013595E+08, -3.048883327940753E+08, 7.085674233347505E+06,
2461155.500000000, A.D. 2026-Apr-25 00:00:00.0000, -2.314249517260073E+08, -3.104340920079620E+08, 5.977158743003830E+06,
2461162.500000000, A.D. 2026-May-02 00:00:00.0000, -2.226502539585514E+08, -3.157203815270048E+08, 4.863647590508565E+06,
2461169.500000000, A.D. 2026-May-09 00:00:00.0000, -2.136881354522790E+08, -3.207409598303242E+08, 3.746043506147429E+06,
2461176.500000000, A.D. 2026-May-16 00:00:00.0000, -2.045448212522942E+08, -3.254896235524771E+08, 2.625263962721586E+06,
2461183.500000000, A.D. 2026-May-23 00:00:00.0000, -1.952267179955527E+08, -3.299602085834889E+08, 1.502241724081427E+06,
2461190.500000000, A.D. 2026-May-30 00:00:00.0000, -1.857404218422199E+08, -3.341465903367632E+08, 3.779256451948136E+05,
2461197.500000000, A.D. 2026-Jun-06 00:00:00.0000, -1.760927285497783E+08, -3.380426864894536E+08, -7.467185166787207E+05,
2461204.500000000, A.D. 2026-Jun-13 00:00:00.0000, -1.662906420181418E+08, -3.416424620341255E+08, -1.870707601878464E+06,
2461211.500000000, A.D. 2026-Jun-20 00:00:00.0000, -1.563413818019671E+08, -3.449399337574360E+08, -2.993040576565698E+06,
2461218.500000000, A.D. 2026-Jun-27 00:00:00.0000, -1.462523912828951E+08, -3.479291745293255E+08, -4.112697964042261E+06,
2461225.500000000, A.D. 2026-Jul-04 00:00:00.0000, -1.360313464944856E+08, -3.506043182231096E+08, -5.228641245827541E+06,
2461232.500000000, A.D. 2026-Jul-11 00:00:00.0000, -1.256861653360000E+08, -3.529595654460893E+08, -6.339812270534873E+06,
2461239.500000000, A.D. 2026-Jul-18 00:00:00.0000, -1.152250170693014E+08, -3.549891901057242E+08, -7.445132681511313E+06,
2461246.500000000, A.D. 2026-Jul-25 00:00:00.0000, -1.046563320588520E+08, -3.566875468623771E+08, -8.543503370186567E+06,
2461253.500000000, A.D. 2026-Aug-01 00:00:00.0000, -9.398881168784301E+07, -3.580490795713104E+08, -9.633803968581825E+06,
2461260.500000000, A.D. 2026-Aug-08 00:00:00.0000, -8.323143821030295E+07, -3.590683308041593E+08, -1.071489240900624E+07,
2461267.500000000, A.D. 2026-Aug-15 00:00:00.0000, -7.239348408972339E+07, -3.597399520564799E+08, -1.178560455821832E+07,
2461274.500000000, A.D. 2026-Aug-22 00:00:00.0000, -6.148452154232407E+07, -3.600587134838053E+08, -1.284475376344764E+07,
2461281.500000000, A.D. 2026-Aug-29 00:00:00.0000, -5.051443452507383E+07, -3.600195146102170E+08, -1.389113022068910E+07,
$$EOE